{"fetched_at":"2026-07-14T17:40:36.945Z","source":"https://celestrak.org/NORAD/elements/gp.php?NAME=CAPELLA&FORMAT=JSON","constellation":"capella","records":[{"OBJECT_NAME":"CAPELLA-11 (ACADIA-1)","OBJECT_ID":"2023-126A","EPOCH":"2026-07-13T02:25:45.090048","CLASSIFICATION_TYPE":"U","MEAN_MOTION":14.84908624,"ECCENTRICITY":0.000212,"INCLINATION":53.0082,"RA_OF_ASC_NODE":72.394,"ARG_OF_PERICENTER":123.6112,"MEAN_ANOMALY":236.507,"EPHEMERIS_TYPE":0,"NORAD_CAT_ID":57693,"ELEMENT_SET_NO":999,"REV_AT_EPOCH":15597,"BSTAR":0.00028325,"MEAN_MOTION_DOT":0.00002203,"MEAN_MOTION_DDOT":0},{"OBJECT_NAME":"CAPELLA-14 (ACADIA-4)","OBJECT_ID":"2024-066C","EPOCH":"2026-07-13T05:57:27.324288","CLASSIFICATION_TYPE":"U","MEAN_MOTION":15.08425491,"ECCENTRICITY":0.0000749,"INCLINATION":45.6044,"RA_OF_ASC_NODE":118.0658,"ARG_OF_PERICENTER":18.4375,"MEAN_ANOMALY":341.6537,"EPHEMERIS_TYPE":0,"NORAD_CAT_ID":59444,"ELEMENT_SET_NO":999,"REV_AT_EPOCH":11642,"BSTAR":0.00045541,"MEAN_MOTION_DOT":0.00006954,"MEAN_MOTION_DDOT":0},{"OBJECT_NAME":"CAPELLA-13 (ACADIA-3)","OBJECT_ID":"2024-142A","EPOCH":"2026-07-13T16:52:54.651648","CLASSIFICATION_TYPE":"U","MEAN_MOTION":14.87654542,"ECCENTRICITY":0.0001344,"INCLINATION":53.0057,"RA_OF_ASC_NODE":301.8247,"ARG_OF_PERICENTER":91.2779,"MEAN_ANOMALY":268.8355,"EPHEMERIS_TYPE":0,"NORAD_CAT_ID":60419,"ELEMENT_SET_NO":999,"REV_AT_EPOCH":10435,"BSTAR":0.00027894,"MEAN_MOTION_DOT":0.00002327,"MEAN_MOTION_DDOT":0},{"OBJECT_NAME":"CAPELLA-15 (ACADIA-5)","OBJECT_ID":"2024-149CE","EPOCH":"2026-07-14T03:23:55.110048","CLASSIFICATION_TYPE":"U","MEAN_MOTION":14.92408383,"ECCENTRICITY":0.0003562,"INCLINATION":97.6762,"RA_OF_ASC_NODE":267.3709,"ARG_OF_PERICENTER":350.1687,"MEAN_ANOMALY":9.9462,"EPHEMERIS_TYPE":0,"NORAD_CAT_ID":60544,"ELEMENT_SET_NO":999,"REV_AT_EPOCH":10387,"BSTAR":0.00022931,"MEAN_MOTION_DOT":0.00002293,"MEAN_MOTION_DDOT":0},{"OBJECT_NAME":"CAPELLA-17 (ACADIA-7)","OBJECT_ID":"2025-135BH","EPOCH":"2026-07-13T21:43:11.269056","CLASSIFICATION_TYPE":"U","MEAN_MOTION":14.91611748,"ECCENTRICITY":0.0004058,"INCLINATION":97.7707,"RA_OF_ASC_NODE":308.1326,"ARG_OF_PERICENTER":255.6063,"MEAN_ANOMALY":104.4705,"EPHEMERIS_TYPE":0,"NORAD_CAT_ID":64583,"ELEMENT_SET_NO":999,"REV_AT_EPOCH":5783,"BSTAR":0.00031498,"MEAN_MOTION_DOT":0.00003106,"MEAN_MOTION_DDOT":0},{"OBJECT_NAME":"CAPELLA-16 (ACADIA-6)","OBJECT_ID":"2025-188D","EPOCH":"2026-07-14T03:35:23.750016","CLASSIFICATION_TYPE":"U","MEAN_MOTION":14.94041737,"ECCENTRICITY":0.0005735,"INCLINATION":97.7379,"RA_OF_ASC_NODE":269.8971,"ARG_OF_PERICENTER":139.162,"MEAN_ANOMALY":221.0031,"EPHEMERIS_TYPE":0,"NORAD_CAT_ID":65318,"ELEMENT_SET_NO":999,"REV_AT_EPOCH":4794,"BSTAR":0.00034493,"MEAN_MOTION_DOT":0.00003625,"MEAN_MOTION_DDOT":0},{"OBJECT_NAME":"CAPELLA-19 (ACADIA-9)","OBJECT_ID":"2026-004X","EPOCH":"2026-07-13T22:04:27.609600","CLASSIFICATION_TYPE":"U","MEAN_MOTION":14.86655141,"ECCENTRICITY":0.0001605,"INCLINATION":97.8003,"RA_OF_ASC_NODE":192.8106,"ARG_OF_PERICENTER":96.0865,"MEAN_ANOMALY":264.0534,"EPHEMERIS_TYPE":0,"NORAD_CAT_ID":67384,"ELEMENT_SET_NO":999,"REV_AT_EPOCH":2724,"BSTAR":0.00030086,"MEAN_MOTION_DOT":0.00002618,"MEAN_MOTION_DDOT":0},{"OBJECT_NAME":"CAPELLA-18 (ACADIA-8)","OBJECT_ID":"2026-004Y","EPOCH":"2026-07-13T23:55:51.396096","CLASSIFICATION_TYPE":"U","MEAN_MOTION":14.86642746,"ECCENTRICITY":0.0001176,"INCLINATION":97.802,"RA_OF_ASC_NODE":193.04,"ARG_OF_PERICENTER":95.2201,"MEAN_ANOMALY":264.9149,"EPHEMERIS_TYPE":0,"NORAD_CAT_ID":67385,"ELEMENT_SET_NO":999,"REV_AT_EPOCH":2726,"BSTAR":0.000074165,"MEAN_MOTION_DOT":0.00000605,"MEAN_MOTION_DDOT":0},{"OBJECT_NAME":"CAPELLA-20 (ACADIA-10)","OBJECT_ID":"2026-067BX","EPOCH":"2026-07-13T20:33:59.069952","CLASSIFICATION_TYPE":"U","MEAN_MOTION":14.91676167,"ECCENTRICITY":0.0000926,"INCLINATION":97.7585,"RA_OF_ASC_NODE":152.7276,"ARG_OF_PERICENTER":146.6185,"MEAN_ANOMALY":213.5093,"EPHEMERIS_TYPE":0,"NORAD_CAT_ID":68485,"ELEMENT_SET_NO":999,"REV_AT_EPOCH":1570,"BSTAR":0.0002949,"MEAN_MOTION_DOT":0.0000291,"MEAN_MOTION_DDOT":0}]}
